CCSDS_OMM_VERS = 2.0
CREATION_DATE  = 
ORIGINATOR     = 

OBJECT_NAME    = IDEFIX & ARIANE 42P R/B
OBJECT_ID      = 2002-021B
CENTER_NAME    = EARTH
REF_FRAME      = TEME
TIME_SYSTEM    = UTC
MEAN_ELEMENT_THEORY = SGP/SGP4

EPOCH          = 2026-01-31T18:54:04.387392
MEAN_MOTION    = 14.30997602
ECCENTRICITY   = .0010883
INCLINATION    = 98.5835
RA_OF_ASC_NODE = 330.8437
ARG_OF_PERICENTER = 299.7512
MEAN_ANOMALY   = 60.2587

EPHEMERIS_TYPE = 0
CLASSIFICATION_TYPE = U
NORAD_CAT_ID   = 27422
ELEMENT_SET_NO = 999
REV_AT_EPOCH   = 23874
BSTAR          = .15345E-3
MEAN_MOTION_DOT = .36E-5
MEAN_MOTION_DDOT = 0

CCSDS_OMM_VERS = 2.0
CREATION_DATE  = 
ORIGINATOR     = 

OBJECT_NAME    = AQUA
OBJECT_ID      = 2002-022A
CENTER_NAME    = EARTH
REF_FRAME      = TEME
TIME_SYSTEM    = UTC
MEAN_ELEMENT_THEORY = SGP/SGP4

EPOCH          = 2026-01-31T20:32:31.138080
MEAN_MOTION    = 14.61880002
ECCENTRICITY   = .0001742
INCLINATION    = 98.4108
RA_OF_ASC_NODE = 358.5695
ARG_OF_PERICENTER = 60.1001
MEAN_ANOMALY   = 328.4053

EPHEMERIS_TYPE = 0
CLASSIFICATION_TYPE = U
NORAD_CAT_ID   = 27424
ELEMENT_SET_NO = 999
REV_AT_EPOCH   = 26335
BSTAR          = .26577E-3
MEAN_MOTION_DOT = .128E-4
MEAN_MOTION_DDOT = 0

CCSDS_OMM_VERS = 2.0
CREATION_DATE  = 
ORIGINATOR     = 

OBJECT_NAME    = CZ-4B R/B
OBJECT_ID      = 2002-024C
CENTER_NAME    = EARTH
REF_FRAME      = TEME
TIME_SYSTEM    = UTC
MEAN_ELEMENT_THEORY = SGP/SGP4

EPOCH          = 2026-01-31T17:37:14.623392
MEAN_MOTION    = 14.14540453
ECCENTRICITY   = .0050982
INCLINATION    = 98.8918
RA_OF_ASC_NODE = 85.3128
ARG_OF_PERICENTER = 127.4030
MEAN_ANOMALY   = 338.9290

EPHEMERIS_TYPE = 0
CLASSIFICATION_TYPE = U
NORAD_CAT_ID   = 27432
ELEMENT_SET_NO = 999
REV_AT_EPOCH   = 22401
BSTAR          = .5083E-4
MEAN_MOTION_DOT = .55E-6
MEAN_MOTION_DDOT = 0

CCSDS_OMM_VERS = 2.0
CREATION_DATE  = 
ORIGINATOR     = 

OBJECT_NAME    = MIDORI II (ADEOS-II)
OBJECT_ID      = 2002-056A
CENTER_NAME    = EARTH
REF_FRAME      = TEME
TIME_SYSTEM    = UTC
MEAN_ELEMENT_THEORY = SGP/SGP4

EPOCH          = 2026-01-31T20:10:46.604352
MEAN_MOTION    = 14.29254832
ECCENTRICITY   = .0002078
INCLINATION    = 98.7705
RA_OF_ASC_NODE = 350.0798
ARG_OF_PERICENTER = 94.6206
MEAN_ANOMALY   = 265.5213

EPHEMERIS_TYPE = 0
CLASSIFICATION_TYPE = U
NORAD_CAT_ID   = 27597
ELEMENT_SET_NO = 999
REV_AT_EPOCH   = 20503
BSTAR          = .1665E-3
MEAN_MOTION_DOT = .378E-5
MEAN_MOTION_DDOT = 0

CCSDS_OMM_VERS = 2.0
CREATION_DATE  = 
ORIGINATOR     = 

OBJECT_NAME    = H-2A R/B
OBJECT_ID      = 2002-056E
CENTER_NAME    = EARTH
REF_FRAME      = TEME
TIME_SYSTEM    = UTC
MEAN_ELEMENT_THEORY = SGP/SGP4

EPOCH          = 2026-01-31T20:28:35.647104
MEAN_MOTION    = 14.33732036
ECCENTRICITY   = .0069029
INCLINATION    = 98.3134
RA_OF_ASC_NODE = 353.6365
ARG_OF_PERICENTER = 271.5273
MEAN_ANOMALY   = 117.1193

EPHEMERIS_TYPE = 0
CLASSIFICATION_TYPE = U
NORAD_CAT_ID   = 27601
ELEMENT_SET_NO = 999
REV_AT_EPOCH   = 20883
BSTAR          = .15064E-3
MEAN_MOTION_DOT = .387E-5
MEAN_MOTION_DDOT = 0

CCSDS_OMM_VERS = 2.0
CREATION_DATE  = 
ORIGINATOR     = 

OBJECT_NAME    = CZ-4B R/B
OBJECT_ID      = 2003-049C
CENTER_NAME    = EARTH
REF_FRAME      = TEME
TIME_SYSTEM    = UTC
MEAN_ELEMENT_THEORY = SGP/SGP4

EPOCH          = 2026-01-31T14:13:00.651360
MEAN_MOTION    = 14.54975664
ECCENTRICITY   = .0047958
INCLINATION    = 98.6835
RA_OF_ASC_NODE = 25.0544
ARG_OF_PERICENTER = 346.3418
MEAN_ANOMALY   = 13.6476

EPHEMERIS_TYPE = 0
CLASSIFICATION_TYPE = U
NORAD_CAT_ID   = 28059
ELEMENT_SET_NO = 999
REV_AT_EPOCH   = 18120
BSTAR          = .14814E-3
MEAN_MOTION_DOT = .595E-5
MEAN_MOTION_DDOT = 0

CCSDS_OMM_VERS = 2.0
CREATION_DATE  = 
ORIGINATOR     = 

OBJECT_NAME    = CZ-2C R/B
OBJECT_ID      = 2004-012C
CENTER_NAME    = EARTH
REF_FRAME      = TEME
TIME_SYSTEM    = UTC
MEAN_ELEMENT_THEORY = SGP/SGP4

EPOCH          = 2026-01-31T20:16:53.090688
MEAN_MOTION    = 15.60337469
ECCENTRICITY   = .0016653
INCLINATION    = 97.7330
RA_OF_ASC_NODE = 93.7551
ARG_OF_PERICENTER = 87.2933
MEAN_ANOMALY   = 273.0229

EPHEMERIS_TYPE = 0
CLASSIFICATION_TYPE = U
NORAD_CAT_ID   = 28222
ELEMENT_SET_NO = 999
REV_AT_EPOCH   = 19852
BSTAR          = .57254E-3
MEAN_MOTION_DOT = .47229E-3
MEAN_MOTION_DDOT = 0

CCSDS_OMM_VERS = 2.0
CREATION_DATE  = 
ORIGINATOR     = 

OBJECT_NAME    = SL-16 R/B
OBJECT_ID      = 2004-021B
CENTER_NAME    = EARTH
REF_FRAME      = TEME
TIME_SYSTEM    = UTC
MEAN_ELEMENT_THEORY = SGP/SGP4

EPOCH          = 2026-01-31T19:52:05.301696
MEAN_MOTION    = 14.14589709
ECCENTRICITY   = .0002687
INCLINATION    = 71.0014
RA_OF_ASC_NODE = 309.8526
ARG_OF_PERICENTER = 102.0251
MEAN_ANOMALY   = 258.1173

EPHEMERIS_TYPE = 0
CLASSIFICATION_TYPE = U
NORAD_CAT_ID   = 28353
ELEMENT_SET_NO = 999
REV_AT_EPOCH   = 11762
BSTAR          = -.69841E-4
MEAN_MOTION_DOT = -.182E-5
MEAN_MOTION_DDOT = 0

CCSDS_OMM_VERS = 2.0
CREATION_DATE  = 
ORIGINATOR     = 

OBJECT_NAME    = CZ-4B R/B
OBJECT_ID      = 2004-035C
CENTER_NAME    = EARTH
REF_FRAME      = TEME
TIME_SYSTEM    = UTC
MEAN_ELEMENT_THEORY = SGP/SGP4

EPOCH          = 2026-01-31T15:56:43.188000
MEAN_MOTION    = 15.28363552
ECCENTRICITY   = .0034341
INCLINATION    = 97.3552
RA_OF_ASC_NODE = 66.3608
ARG_OF_PERICENTER = 99.7291
MEAN_ANOMALY   = 260.7830

EPHEMERIS_TYPE = 0
CLASSIFICATION_TYPE = U
NORAD_CAT_ID   = 28415
ELEMENT_SET_NO = 999
REV_AT_EPOCH   = 17425
BSTAR          = .26617E-3
MEAN_MOTION_DOT = .7406E-4
MEAN_MOTION_DDOT = 0

CCSDS_OMM_VERS = 2.0
CREATION_DATE  = 
ORIGINATOR     = 

OBJECT_NAME    = CZ-2C R/B
OBJECT_ID      = 2004-046B
CENTER_NAME    = EARTH
REF_FRAME      = TEME
TIME_SYSTEM    = UTC
MEAN_ELEMENT_THEORY = SGP/SGP4

EPOCH          = 2026-01-31T17:50:13.472736
MEAN_MOTION    = 14.26977669
ECCENTRICITY   = .0138206
INCLINATION    = 98.1999
RA_OF_ASC_NODE = 309.0208
ARG_OF_PERICENTER = 264.1457
MEAN_ANOMALY   = 94.3957

EPHEMERIS_TYPE = 0
CLASSIFICATION_TYPE = U
NORAD_CAT_ID   = 28480
ELEMENT_SET_NO = 999
REV_AT_EPOCH   = 10323
BSTAR          = .90476E-4
MEAN_MOTION_DOT = .201E-5
MEAN_MOTION_DDOT = 0

CCSDS_OMM_VERS = 2.0
CREATION_DATE  = 
ORIGINATOR     = 

OBJECT_NAME    = ARIANE 5 R/B
OBJECT_ID      = 2004-049H
CENTER_NAME    = EARTH
REF_FRAME      = TEME
TIME_SYSTEM    = UTC
MEAN_ELEMENT_THEORY = SGP/SGP4

EPOCH          = 2026-01-31T10:39:46.333728
MEAN_MOTION    = 14.85181143
ECCENTRICITY   = .0085413
INCLINATION    = 98.2567
RA_OF_ASC_NODE = 198.5236
ARG_OF_PERICENTER = 111.5299
MEAN_ANOMALY   = 249.5046

EPHEMERIS_TYPE = 0
CLASSIFICATION_TYPE = U
NORAD_CAT_ID   = 28499
ELEMENT_SET_NO = 999
REV_AT_EPOCH   = 14026
BSTAR          = .15689E-3
MEAN_MOTION_DOT = .1371E-4
MEAN_MOTION_DDOT = 0

CCSDS_OMM_VERS = 2.0
CREATION_DATE  = 
ORIGINATOR     = 

OBJECT_NAME    = CZ-2D R/B
OBJECT_ID      = 2005-024B
CENTER_NAME    = EARTH
REF_FRAME      = TEME
TIME_SYSTEM    = UTC
MEAN_ELEMENT_THEORY = SGP/SGP4

EPOCH          = 2026-01-31T18:57:18.240480
MEAN_MOTION    = 15.56922605
ECCENTRICITY   = .0006664
INCLINATION    = 97.3612
RA_OF_ASC_NODE = 45.6755
ARG_OF_PERICENTER = 136.5502
MEAN_ANOMALY   = 223.6279

EPHEMERIS_TYPE = 0
CLASSIFICATION_TYPE = U
NORAD_CAT_ID   = 28738
ELEMENT_SET_NO = 999
REV_AT_EPOCH   = 13403
BSTAR          = .46781E-3
MEAN_MOTION_DOT = .33678E-3
MEAN_MOTION_DDOT = 0

