IDEFIX & ARIANE 42P R/B 
1 27422U 02021B   26031.78755078  .00000360  00000+0  15345-3 0  9990
2 27422  98.5835 330.8437 0010883 299.7512  60.2587 14.30997602238743
AQUA                    
1 27424U 02022A   26031.85591595  .00001280  00000+0  26577-3 0  9994
2 27424  98.4108 358.5695 0001742  60.1001 328.4053 14.61880002263358
CZ-4B R/B               
1 27432U 02024C   26031.73419703  .00000055  00000+0  50830-4 0  9991
2 27432  98.8918  85.3128 0050982 127.4030 338.9290 14.14540453224015
MIDORI II (ADEOS-II)    
1 27597U 02056A   26031.84081718  .00000378  00000+0  16650-3 0  9990
2 27597  98.7705 350.0798 0002078  94.6206 265.5213 14.29254832205038
H-2A R/B                
1 27601U 02056E   26031.85319036  .00000387  00000+0  15064-3 0  9992
2 27601  98.3134 353.6365 0069029 271.5273 117.1193 14.33732036208836
CZ-4B R/B               
1 28059U 03049C   26031.59236865  .00000595  00000+0  14814-3 0  9995
2 28059  98.6835  25.0544 0047958 346.3418  13.6476 14.54975664181207
CZ-2C R/B               
1 28222U 04012C   26031.84505892  .00047229  00000+0  57254-3 0  9995
2 28222  97.7330  93.7551 0016653  87.2933 273.0229 15.60337469198524
SL-16 R/B               
1 28353U 04021B   26031.82783914 -.00000182  00000+0 -69841-4 0  9996
2 28353  71.0014 309.8526 0002687 102.0251 258.1173 14.14589709117625
CZ-4B R/B               
1 28415U 04035C   26031.66438875  .00007406  00000+0  26617-3 0  9992
2 28415  97.3552  66.3608 0034341  99.7291 260.7830 15.28363552174259
CZ-2C R/B               
1 28480U 04046B   26031.74321149  .00000201  00000+0  90476-4 0  9991
2 28480  98.1999 309.0208 0138206 264.1457  94.3957 14.26977669103233
ARIANE 5 R/B            
1 28499U 04049H   26031.44428627  .00001371  00000+0  15689-3 0  9991
2 28499  98.2567 198.5236 0085413 111.5299 249.5046 14.85181143140263
CZ-2D R/B               
1 28738U 05024B   26031.78979445  .00033678  00000+0  46781-3 0  9999
2 28738  97.3612  45.6755 0006664 136.5502 223.6279 15.56922605134037
